{
  "type": "FeatureCollection",
  "features": [
    {
      "type": "Feature",
      "properties": {
        "norad_id": 67005,
        "name": "STARLINK-36148",
        "group": "last-30-days",
        "lat": 68.9375666666712,
        "lon": 52.22891657484831,
        "alt_km": 288.9950493391689,
        "timestamp": "2025-12-19T18:58:40.330439+00:00",
        "meta_object_name": "STARLINK-36148",
        "meta_object_id": "2025-293C",
        "meta_epoch": "2025-12-19T06:00:02.000160",
        "meta_mean_motion": 15.94182839,
        "meta_eccentricity": 0.00039872,
        "meta_inclination": 69.9951,
        "meta_ra_of_asc_node": 304.8962,
        "meta_arg_of_pericenter": 271.9667,
        "meta_mean_anomaly": 323.5535,
        "meta_ephemeris_type": 0,
        "meta_classification_type": "U",
        "meta_norad_cat_id": 67005,
        "meta_element_set_no": 999,
        "meta_rev_at_epoch": 130,
        "meta_bstar": -0.0028968495,
        "meta_mean_motion_dot": -0.01077187,
        "meta_mean_motion_ddot": 0.00035447112,
        "tle_line1": "1 67005U 25293C   25353.25002315 -.01077187  35447-3 -28968-2 0  9999",
        "tle_line2": "2 67005  69.9951 304.8962 0003987 271.9667 323.5535 15.94182839  1306"
      },
      "geometry": {
        "type": "Point",
        "coordinates": [
          52.22891657484831,
          68.9375666666712
        ]
      }
    },
    {
      "type": "Feature",
      "properties": {
        "norad_id": 67006,
        "name": "STARLINK-36156",
        "group": "last-30-days",
        "lat": 66.91947357584054,
        "lon": 64.5559175056191,
        "alt_km": 288.76307813622225,
        "timestamp": "2025-12-19T18:58:40.330449+00:00",
        "meta_object_name": "STARLINK-36156",
        "meta_object_id": "2025-293D",
        "meta_epoch": "2025-12-19T06:00:02.000160",
        "meta_mean_motion": 15.94314602,
        "meta_eccentricity": 0.00039587,
        "meta_inclination": 69.9947,
        "meta_ra_of_asc_node": 304.8898,
        "meta_arg_of_pericenter": 270.2234,
        "meta_mean_anomaly": 330.0888,
        "meta_ephemeris_type": 0,
        "meta_classification_type": "U",
        "meta_norad_cat_id": 67006,
        "meta_element_set_no": 999,
        "meta_rev_at_epoch": 130,
        "meta_bstar": -0.0029006201,
        "meta_mean_motion_dot": -0.01086051,
        "meta_mean_motion_ddot": 0.00036036296,
        "tle_line1": "1 67006U 25293D   25353.25002315 -.01086051  36036-3 -29006-2 0  9999",
        "tle_line2": "2 67006  69.9947 304.8898 0003958 270.2234 330.0888 15.94314602  1309"
      },
      "geometry": {
        "type": "Point",
        "coordinates": [
          64.5559175056191,
          66.91947357584054
        ]
      }
    },
    {
      "type": "Feature",
      "properties": {
        "norad_id": 67007,
        "name": "STARLINK-36123",
        "group": "last-30-days",
        "lat": 67.94470643804577,
        "lon": 59.25206453294188,
        "alt_km": 288.81642530854606,
        "timestamp": "2025-12-19T18:58:40.330459+00:00",
        "meta_object_name": "STARLINK-36123",
        "meta_object_id": "2025-293E",
        "meta_epoch": "2025-12-19T06:00:02.000160",
        "meta_mean_motion": 15.94260692,
        "meta_eccentricity": 0.00039139,
        "meta_inclination": 69.9944,
        "meta_ra_of_asc_node": 304.8924,
        "meta_arg_of_pericenter": 269.8508,
        "meta_mean_anomaly": 328.2935,
        "meta_ephemeris_type": 0,
        "meta_classification_type": "U",
        "meta_norad_cat_id": 67007,
        "meta_element_set_no": 999,
        "meta_rev_at_epoch": 130,
        "meta_bstar": -0.0029183448,
        "meta_mean_motion_dot": -0.01089523,
        "meta_mean_motion_ddot": 0.00036229177,
        "tle_line1": "1 67007U 25293E   25353.25002315 -.01089523  36229-3 -29183-2 0  9997",
        "tle_line2": "2 67007  69.9944 304.8924 0003913 269.8508 328.2935 15.94260692  1307"
      },
      "geometry": {
        "type": "Point",
        "coordinates": [
          59.25206453294188,
          67.94470643804577
        ]
      }
    },
    {
      "type": "Feature",
      "properties": {
        "norad_id": 67008,
        "name": "STARLINK-36163",
        "group": "last-30-days",
        "lat": 65.31684037980433,
        "lon": 70.86915636132424,
        "alt_km": 288.6834691295526,
        "timestamp": "2025-12-19T18:58:40.330469+00:00",
        "meta_object_name": "STARLINK-36163",
        "meta_object_id": "2025-293F",
        "meta_epoch": "2025-12-19T06:00:02.000160",
        "meta_mean_motion": 15.94401265,
        "meta_eccentricity": 0.00039286,
        "meta_inclination": 69.9949,
        "meta_ra_of_asc_node": 304.8865,
        "meta_arg_of_pericenter": 271.0344,
        "meta_mean_anomaly": 332.14,
        "meta_ephemeris_type": 0,
        "meta_classification_type": "U",
        "meta_norad_cat_id": 67008,
        "meta_element_set_no": 999,
        "meta_rev_at_epoch": 130,
        "meta_bstar": -0.0029370963,
        "meta_mean_motion_dot": -0.01104596,
        "meta_mean_motion_ddot": 0.00037213458,
        "tle_line1": "1 67008U 25293F   25353.25002315 -.01104596  37213-3 -29371-2 0  9999",
        "tle_line2": "2 67008  69.9949 304.8865 0003928 271.0344 332.1400 15.94401265  1300"
      },
      "geometry": {
        "type": "Point",
        "coordinates": [
          70.86915636132424,
          65.31684037980433
        ]
      }
    },
    {
      "type": "Feature",
      "properties": {
        "norad_id": 67009,
        "name": "STARLINK-36118",
        "group": "last-30-days",
        "lat": 63.83153153196689,
        "lon": 75.452815318491,
        "alt_km": 288.610411482191,
        "timestamp": "2025-12-19T18:58:40.330501+00:00",
        "meta_object_name": "STARLINK-36118",
        "meta_object_id": "2025-293G",
        "meta_epoch": "2025-12-19T06:00:02.000160",
        "meta_mean_motion": 15.94465934,
        "meta_eccentricity": 0.00039106,
        "meta_inclination": 69.9949,
        "meta_ra_of_asc_node": 304.8839,
        "meta_arg_of_pericenter": 269.966,
        "meta_mean_anomaly": 335.5516,
        "meta_ephemeris_type": 0,
        "meta_classification_type": "U",
        "meta_norad_cat_id": 67009,
        "meta_element_set_no": 999,
        "meta_rev_at_epoch": 130,
        "meta_bstar": -0.0029413754,
        "meta_mean_motion_dot": -0.01109952,
        "meta_mean_motion_ddot": 0.00037572167,
        "tle_line1": "1 67009U 25293G   25353.25002315 -.01109952  37572-3 -29414-2 0  9997",
        "tle_line2": "2 67009  69.9949 304.8839 0003910 269.9660 335.5516 15.94465934  1308"
      },
      "geometry": {
        "type": "Point",
        "coordinates": [
          75.452815318491,
          63.83153153196689
        ]
      }
    },
    {
      "type": "Feature",
      "properties": {
        "norad_id": 67010,
        "name": "STARLINK-36189",
        "group": "last-30-days",
        "lat": 60.880817965449374,
        "lon": 82.4548631652109,
        "alt_km": 288.52072283555754,
        "timestamp": "2025-12-19T18:58:40.330512+00:00",
        "meta_object_name": "STARLINK-36189",
        "meta_object_id": "2025-293H",
        "meta_epoch": "2025-12-19T06:00:02.000160",
        "meta_mean_motion": 15.9458135,
        "meta_eccentricity": 0.00038768,
        "meta_inclination": 69.995,
        "meta_ra_of_asc_node": 304.8789,
        "meta_arg_of_pericenter": 269.5657,
        "meta_mean_anomaly": 340.1126,
        "meta_ephemeris_type": 0,
        "meta_classification_type": "U",
        "meta_norad_cat_id": 67010,
        "meta_element_set_no": 999,
        "meta_rev_at_epoch": 130,
        "meta_bstar": -0.0029332942,
        "meta_mean_motion_dot": -0.0111366,
        "meta_mean_motion_ddot": 0.00037849155,
        "tle_line1": "1 67010U 25293H   25353.25002315 -.01113660  37849-3 -29333-2 0  9997",
        "tle_line2": "2 67010  69.9950 304.8789 0003876 269.5657 340.1126 15.94581350  1309"
      },
      "geometry": {
        "type": "Point",
        "coordinates": [
          82.4548631652109,
          60.880817965449374
        ]
      }
    },
    {
      "type": "Feature",
      "properties": {
        "norad_id": 67011,
        "name": "STARLINK-36167",
        "group": "last-30-days",
        "lat": 62.61243222204722,
        "lon": 78.6184475189272,
        "alt_km": 288.56428853433863,
        "timestamp": "2025-12-19T18:58:40.330522+00:00",
        "meta_object_name": "STARLINK-36167",
        "meta_object_id": "2025-293J",
        "meta_epoch": "2025-12-19T06:00:02.000160",
        "meta_mean_motion": 15.94508836,
        "meta_eccentricity": 0.00039091,
        "meta_inclination": 69.9949,
        "meta_ra_of_asc_node": 304.882,
        "meta_arg_of_pericenter": 269.8323,
        "meta_mean_anomaly": 337.4674,
        "meta_ephemeris_type": 0,
        "meta_classification_type": "U",
        "meta_norad_cat_id": 67011,
        "meta_element_set_no": 999,
        "meta_rev_at_epoch": 130,
        "meta_bstar": -0.0029111573,
        "meta_mean_motion_dot": -0.0110113,
        "meta_mean_motion_ddot": 0.00037039266,
        "tle_line1": "1 67011U 25293J   25353.25002315 -.01101130  37039-3 -29112-2 0  9993",
        "tle_line2": "2 67011  69.9949 304.8820 0003909 269.8323 337.4674 15.94508836  1309"
      },
      "geometry": {
        "type": "Point",
        "coordinates": [
          78.6184475189272,
          62.61243222204722
        ]
      }
    }
  ]
}